REAL                    
1 64875U 25154G   26068.72233414  .00022901  00000+0  82904-3 0  9994
2 64875  97.4133 137.2581 0001853 118.5876 241.5550 15.28408058 34830
STARLINK-36500          
1 67320U 26002R   26068.42424362  .00024944  00000+0  91420-3 0  9998
2 67320  42.9968 327.1737 0000643 351.1054   8.9786 15.27533622 11095
