[{"OBJECT_NAME":"REAL","OBJECT_ID":"2025-154G","EPOCH":"2026-03-09T17:20:09.670560","MEAN_MOTION":15.28408058,"ECCENTRICITY":0.00018528,"INCLINATION":97.4133,"RA_OF_ASC_NODE":137.2581,"ARG_OF_PERICENTER":118.5876,"MEAN_ANOMALY":241.555,"EPHEMERIS_TYPE":0,"CLASSIFICATION_TYPE":"U","NORAD_CAT_ID":64875,"ELEMENT_SET_NO":999,"REV_AT_EPOCH":3483,"BSTAR":0.0008290401,"MEAN_MOTION_DOT":0.00022901,"MEAN_MOTION_DDOT":0},{"OBJECT_NAME":"STARLINK-36500","OBJECT_ID":"2026-002R","EPOCH":"2026-03-09T10:10:54.648768","MEAN_MOTION":15.27533622,"ECCENTRICITY":6.436e-5,"INCLINATION":42.9968,"RA_OF_ASC_NODE":327.1737,"ARG_OF_PERICENTER":351.1054,"MEAN_ANOMALY":8.9786,"EPHEMERIS_TYPE":0,"CLASSIFICATION_TYPE":"U","NORAD_CAT_ID":67320,"ELEMENT_SET_NO":999,"REV_AT_EPOCH":1109,"BSTAR":0.00091419923,"MEAN_MOTION_DOT":0.00024944,"MEAN_MOTION_DDOT":0}]
